{
  "links" : {
    "next" : "https://api.nasa.gov/neo/rest/v1/feed?start_date=2006-09-16&end_date=2006-09-16&detailed=true&api_key=t0TVs3DtDT2H8Oy2Zy8m2eVrNsAVKAexjcZXUckd",
    "prev" : "https://api.nasa.gov/neo/rest/v1/feed?start_date=2006-09-14&end_date=2006-09-14&detailed=true&api_key=t0TVs3DtDT2H8Oy2Zy8m2eVrNsAVKAexjcZXUckd",
    "self" : "https://api.nasa.gov/neo/rest/v1/feed?start_date=2006-09-15&end_date=2006-09-15&detailed=true&api_key=t0TVs3DtDT2H8Oy2Zy8m2eVrNsAVKAexjcZXUckd"
  },
  "element_count" : 8,
  "near_earth_objects" : {
    "2006-09-15" : [ {
      "links" : {
        "self" : "https://api.nasa.gov/neo/rest/v1/neo/3343108?api_key=t0TVs3DtDT2H8Oy2Zy8m2eVrNsAVKAexjcZXUckd"
      },
      "neo_reference_id" : "3343108",
      "name" : "(2006 SD25)",
      "nasa_jpl_url" : "http://ssd.jpl.nasa.gov/sbdb.cgi?sstr=3343108",
      "absolute_magnitude_h" : 24.0,
      "estimated_diameter" : {
        "kilometers" : {
          "estimated_diameter_min" : 0.0421264611,
          "estimated_diameter_max" : 0.0941976306
        },
        "meters" : {
          "estimated_diameter_min" : 42.1264610556,
          "estimated_diameter_max" : 94.1976305719
        },
        "miles" : {
          "estimated_diameter_min" : 0.0261761612,
          "estimated_diameter_max" : 0.0585316759
        },
        "feet" : {
          "estimated_diameter_min" : 138.2101784897,
          "estimated_diameter_max" : 309.0473542854
        }
      },
      "is_potentially_hazardous_asteroid" : false,
      "close_approach_data" : [ {
        "close_approach_date" : "2006-09-15",
        "epoch_date_close_approach" : 1158303600000,
        "relative_velocity" : {
          "kilometers_per_second" : "7.2487686901",
          "kilometers_per_hour" : "26095.5672845221",
          "miles_per_hour" : "16214.7706829854"
        },
        "miss_distance" : {
          "astronomical" : "0.0418259301",
          "lunar" : "16.2702865601",
          "kilometers" : "6257070.5",
          "miles" : "3887963.25"
        },
        "orbiting_body" : "Earth"
      } ],
      "orbital_data" : {
        "orbit_id" : "16",
        "orbit_determination_date" : "2017-04-06 09:08:05",
        "orbit_uncertainty" : "7",
        "minimum_orbit_intersection" : ".0160441",
        "jupiter_tisserand_invariant" : "3.789",
        "epoch_osculation" : "2458000.5",
        "eccentricity" : ".4679943370651481",
        "semi_major_axis" : "1.91492766149303",
        "inclination" : "1.447816666728518",
        "ascending_node_longitude" : "296.6422504970163",
        "orbital_period" : "967.8921907707537",
        "perihelion_distance" : "1.018752360024885",
        "perihelion_argument" : "37.51156806751663",
        "aphelion_distance" : "2.811102962961175",
        "perihelion_time" : "2457853.422433793201",
        "mean_anomaly" : "54.70436102215493",
        "mean_motion" : ".371942250834077",
        "equinox" : "J2000"
      }
    }, {
      "links" : {
        "self" : "https://api.nasa.gov/neo/rest/v1/neo/2152754?api_key=t0TVs3DtDT2H8Oy2Zy8m2eVrNsAVKAexjcZXUckd"
      },
      "neo_reference_id" : "2152754",
      "name" : "152754 (1999 GS6)",
      "nasa_jpl_url" : "http://ssd.jpl.nasa.gov/sbdb.cgi?sstr=2152754",
      "absolute_magnitude_h" : 19.1,
      "estimated_diameter" : {
        "kilometers" : {
          "estimated_diameter_min" : 0.4023045798,
          "estimated_diameter_max" : 0.8995803882
        },
        "meters" : {
          "estimated_diameter_min" : 402.3045798343,
          "estimated_diameter_max" : 899.5803881691
        },
        "miles" : {
          "estimated_diameter_min" : 0.2499803991,
          "estimated_diameter_max" : 0.5589731654
        },
        "feet" : {
          "estimated_diameter_min" : 1319.8969577037,
          "estimated_diameter_max" : 2951.3793207207
        }
      },
      "is_potentially_hazardous_asteroid" : true,
      "close_approach_data" : [ {
        "close_approach_date" : "2006-09-15",
        "epoch_date_close_approach" : 1158303600000,
        "relative_velocity" : {
          "kilometers_per_second" : "11.2441770785",
          "kilometers_per_hour" : "40479.0374826936",
          "miles_per_hour" : "25152.0997069548"
        },
        "miss_distance" : {
          "astronomical" : "0.1266080918",
          "lunar" : "49.2505455017",
          "kilometers" : "18940300",
          "miles" : "11768957"
        },
        "orbiting_body" : "Earth"
      } ],
      "orbital_data" : {
        "orbit_id" : "55",
        "orbit_determination_date" : "2017-04-06 09:27:13",
        "orbit_uncertainty" : "0",
        "minimum_orbit_intersection" : ".0188434",
        "jupiter_tisserand_invariant" : "5.199",
        "epoch_osculation" : "2458000.5",
        "eccentricity" : ".4973457568249125",
        "semi_major_axis" : "1.190920566209327",
        "inclination" : "2.020707347929493",
        "ascending_node_longitude" : "314.5063412859134",
        "orbital_period" : "474.7037032199969",
        "perihelion_distance" : ".598621275889596",
        "perihelion_argument" : "134.87857243",
        "aphelion_distance" : "1.783219856529058",
        "perihelion_time" : "2457852.663526954378",
        "mean_anomaly" : "112.1144198695223",
        "mean_motion" : ".7583677935479711",
        "equinox" : "J2000"
      }
    }, {
      "links" : {
        "self" : "https://api.nasa.gov/neo/rest/v1/neo/3160728?api_key=t0TVs3DtDT2H8Oy2Zy8m2eVrNsAVKAexjcZXUckd"
      },
      "neo_reference_id" : "3160728",
      "name" : "(2003 SL5)",
      "nasa_jpl_url" : "http://ssd.jpl.nasa.gov/sbdb.cgi?sstr=3160728",
      "absolute_magnitude_h" : 19.2,
      "estimated_diameter" : {
        "kilometers" : {
          "estimated_diameter_min" : 0.3841978911,
          "estimated_diameter_max" : 0.8590926012
        },
        "meters" : {
          "estimated_diameter_min" : 384.1978910643,
          "estimated_diameter_max" : 859.0926012318
        },
        "miles" : {
          "estimated_diameter_min" : 0.2387294278,
          "estimated_diameter_max" : 0.5338152287
        },
        "feet" : {
          "estimated_diameter_min" : 1260.4918089193,
          "estimated_diameter_max" : 2818.5453698252
        }
      },
      "is_potentially_hazardous_asteroid" : false,
      "close_approach_data" : [ {
        "close_approach_date" : "2006-09-15",
        "epoch_date_close_approach" : 1158303600000,
        "relative_velocity" : {
          "kilometers_per_second" : "14.2170634971",
          "kilometers_per_hour" : "51181.4285894941",
          "miles_per_hour" : "31802.1493366221"
        },
        "miss_distance" : {
          "astronomical" : "0.3819863152",
          "lunar" : "148.5926818848",
          "kilometers" : "57144340",
          "miles" : "35507848"
        },
        "orbiting_body" : "Earth"
      } ],
      "orbital_data" : {
        "orbit_id" : "37",
        "orbit_determination_date" : "2017-04-06 09:13:50",
        "orbit_uncertainty" : "0",
        "minimum_orbit_intersection" : ".145443",
        "jupiter_tisserand_invariant" : "3.579",
        "epoch_osculation" : "2458000.5",
        "eccentricity" : ".4754663799419478",
        "semi_major_axis" : "2.111386847902463",
        "inclination" : "6.103673745415309",
        "ascending_node_longitude" : "39.68756189154174",
        "orbital_period" : "1120.598778667379",
        "perihelion_distance" : "1.107493386673239",
        "perihelion_argument" : "280.082279010041",
        "aphelion_distance" : "3.115280309131688",
        "perihelion_time" : "2458466.666972341116",
        "mean_anomaly" : "210.2406809309805",
        "mean_motion" : ".3212568198834854",
        "equinox" : "J2000"
      }
    } ]
  }
}